1 33591U 09005A   22050.12893391  .00000048  00000-0  51166-4 0  9995
2 33591  99.1635  81.6950 0014316 157.1695 203.0115 14.12531039671740